[
    {
        "Altitude(m)": 554715.9789281081,
        "Argument of Periapsis(deg)": 0.019868973332140504,
        "Eccentricity": 0.0,
        "Inclination(deg)": 53.0,
        "Latitude(deg)": 27.896120438842946,
        "Longitude(deg)": -79.00591545662907,
        "Mean Anomaly(deg)": 35.729378602732766,
        "RAAN(deg)": -0.029569894415949535,
        "Satellite Name": "Starlink Shell 1 0",
        "Satellite Number": 0,
        "Semi-Major Axis(m)": 6931778.249405717,
        "Time(s)": 570
    },
    {
        "Altitude(m)": 554784.4196410743,
        "Argument of Periapsis(deg)": 0.02021755181165174,
        "Eccentricity": 0.0,
        "Inclination(deg)": 53.0,
        "Latitude(deg)": 28.357013133388516,
        "Longitude(deg)": -78.56350955750649,
        "Mean Anomaly(deg)": 36.35620980628947,
        "RAAN(deg)": -0.030088664493422325,
        "Satellite Name": "Starlink Shell 1 0",
        "Satellite Number": 0,
        "Semi-Major Axis(m)": 6931778.249405717,
        "Time(s)": 580
    },
    {
        "Altitude(m)": 554854.1137026331,
        "Argument of Periapsis(deg)": 0.020566130291162974,
        "Eccentricity": 0.0,
        "Inclination(deg)": 53.0,
        "Latitude(deg)": 28.816144669004107,
        "Longitude(deg)": -78.11691884503199,
        "Mean Anomaly(deg)": 36.9830410098462,
        "RAAN(deg)": -0.03060743457089513,
        "Satellite Name": "Starlink Shell 1 0",
        "Satellite Number": 0,
        "Semi-Major Axis(m)": 6931778.249405717,
        "Time(s)": 590
    },
    {
        "Altitude(m)": 554925.0085961444,
        "Argument of Periapsis(deg)": 0.020914708770674213,
        "Eccentricity": 0.0,
        "Inclination(deg)": 53.0,
        "Latitude(deg)": 29.273466368361653,
        "Longitude(deg)": -77.66604230758938,
        "Mean Anomaly(deg)": 37.60987221340291,
        "RAAN(deg)": -0.031126204648367926,
        "Satellite Name": "Starlink Shell 1 0",
        "Satellite Number": 0,
        "Semi-Major Axis(m)": 6931778.249405717,
        "Time(s)": 600
    },
    {
        "Altitude(m)": 554997.0513914025,
        "Argument of Periapsis(deg)": 0.021263287250185448,
        "Eccentricity": 0.0,
        "Inclination(deg)": 53.0,
        "Latitude(deg)": 29.728928467168274,
        "Longitude(deg)": -77.21077761439645,
        "Mean Anomaly(deg)": 38.236703416959614,
        "RAAN(deg)": -0.03164497472584072,
        "Satellite Name": "Starlink Shell 1 0",
        "Satellite Number": 0,
        "Semi-Major Axis(m)": 6931778.249405717,
        "Time(s)": 610
    },
    {
        "Altitude(m)": 555070.1887726503,
        "Argument of Periapsis(deg)": 0.021611865729696686,
        "Eccentricity": 0.0,
        "Inclination(deg)": 53.0,
        "Latitude(deg)": 30.182480083223574,
        "Longitude(deg)": -76.75102061806871,
        "Mean Anomaly(deg)": 38.86353462051634,
        "RAAN(deg)": -0.03216374480331353,
        "Satellite Name": "Starlink Shell 1 0",
        "Satellite Number": 0,
        "Semi-Major Axis(m)": 6931778.249405717,
        "Time(s)": 620
    },
    {
        "Altitude(m)": 555144.3670667518,
        "Argument of Periapsis(deg)": 0.02196044420920792,
        "Eccentricity": 0.0,
        "Inclination(deg)": 53.0,
        "Latitude(deg)": 30.634069185074864,
        "Longitude(deg)": -76.28666654177772,
        "Mean Anomaly(deg)": 39.49036582407305,
        "RAAN(deg)": -0.03268251488078632,
        "Satellite Name": "Starlink Shell 1 0",
        "Satellite Number": 0,
        "Semi-Major Axis(m)": 6931778.249405717,
        "Time(s)": 630
    },
    {
        "Altitude(m)": 555219.5322715068,
        "Argument of Periapsis(deg)": 0.02230902268871916,
        "Eccentricity": 0.0,
        "Inclination(deg)": 53.0,
        "Latitude(deg)": 31.08364256030399,
        "Longitude(deg)": -75.81760864888143,
        "Mean Anomaly(deg)": 40.117197027629764,
        "RAAN(deg)": -0.03320128495825912,
        "Satellite Name": "Starlink Shell 1 0",
        "Satellite Number": 0,
        "Semi-Major Axis(m)": 6931778.249405717,
        "Time(s)": 640
    },
    {
        "Altitude(m)": 555295.6300840611,
        "Argument of Periapsis(deg)": 0.022657601168230398,
        "Eccentricity": 0.0,
        "Inclination(deg)": 53.0,
        "Latitude(deg)": 31.53114578348069,
        "Longitude(deg)": -75.34373943824875,
        "Mean Anomaly(deg)": 40.74402823118648,
        "RAAN(deg)": -0.03372005503573192,
        "Satellite Name": "Starlink Shell 1 0",
        "Satellite Number": 0,
        "Semi-Major Axis(m)": 6931778.249405717,
        "Time(s)": 650
    },
    {
        "Altitude(m)": 555372.6059294385,
        "Argument of Periapsis(deg)": 0.023006179647741636,
        "Eccentricity": 0.0,
        "Inclination(deg)": 53.0,
        "Latitude(deg)": 31.976523183825936,
        "Longitude(deg)": -74.86495016319137,
        "Mean Anomaly(deg)": 41.370859434743195,
        "RAAN(deg)": -0.03423882511320472,
        "Satellite Name": "Starlink Shell 1 0",
        "Satellite Number": 0,
        "Semi-Major Axis(m)": 6931778.249405717,
        "Time(s)": 660
    },
    {
        "Altitude(m)": 555450.4049891563,
        "Argument of Periapsis(deg)": 0.023354758127252868,
        "Eccentricity": 0.0,
        "Inclination(deg)": 53.0,
        "Latitude(deg)": 32.41971781263192,
        "Longitude(deg)": -74.38113035532591,
        "Mean Anomaly(deg)": 41.99769063829991,
        "RAAN(deg)": -0.03475759519067752,
        "Satellite Name": "Starlink Shell 1 0",
        "Satellite Number": 0,
        "Semi-Major Axis(m)": 6931778.249405717,
        "Time(s)": 670
    },
    {
        "Altitude(m)": 555528.9722299215,
        "Argument of Periapsis(deg)": 0.023703336606764106,
        "Eccentricity": 0.0,
        "Inclination(deg)": 53.0,
        "Latitude(deg)": 32.86067141049257,
        "Longitude(deg)": -73.89216886661087,
        "Mean Anomaly(deg)": 42.624521841856634,
        "RAAN(deg)": -0.03527636526815032,
        "Satellite Name": "Starlink Shell 1 0",
        "Satellite Number": 0,
        "Semi-Major Axis(m)": 6931778.249405717,
        "Time(s)": 680
    },
    {
        "Altitude(m)": 555608.252432362,
        "Argument of Periapsis(deg)": 0.024051915086275345,
        "Eccentricity": 0.0,
        "Inclination(deg)": 53.0,
        "Latitude(deg)": 33.2993243744042,
        "Longitude(deg)": -73.39795340420949,
        "Mean Anomaly(deg)": 43.25135304541334,
        "RAAN(deg)": -0.03579513534562312,
        "Satellite Name": "Starlink Shell 1 0",
        "Satellite Number": 0,
        "Semi-Major Axis(m)": 6931778.249405717,
        "Time(s)": 690
    },
    {
        "Altitude(m)": 555688.1902198438,
        "Argument of Periapsis(deg)": 0.024400493565786583,
        "Eccentricity": 0.0,
        "Inclination(deg)": 53.0,
        "Latitude(deg)": 33.73561572480426,
        "Longitude(deg)": -72.89837007146271,
        "Mean Anomaly(deg)": 43.87818424897006,
        "RAAN(deg)": -0.03631390542309591,
        "Satellite Name": "Starlink Shell 1 0",
        "Satellite Number": 0,
        "Semi-Major Axis(m)": 6931778.249405717,
        "Time(s)": 700
    },
    {
        "Altitude(m)": 555768.7300872975,
        "Argument of Periapsis(deg)": 0.024749072045297815,
        "Eccentricity": 0.0,
        "Inclination(deg)": 53.0,
        "Latitude(deg)": 34.169483072620885,
        "Longitude(deg)": -72.39330442827942,
        "Mean Anomaly(deg)": 44.50501545252678,
        "RAAN(deg)": -0.036832675500568714,
        "Satellite Name": "Starlink Shell 1 0",
        "Satellite Number": 0,
        "Semi-Major Axis(m)": 6931778.249405717,
        "Time(s)": 710
    },
    {
        "Altitude(m)": 555849.8164300525,
        "Argument of Periapsis(deg)": 0.025097650524809053,
        "Eccentricity": 0.0,
        "Inclination(deg)": 53.0,
        "Latitude(deg)": 34.600862586417406,
        "Longitude(deg)": -71.88264104565307,
        "Mean Anomaly(deg)": 45.13184665608348,
        "RAAN(deg)": -0.03735144557804152,
        "Satellite Name": "Starlink Shell 1 0",
        "Satellite Number": 0,
        "Semi-Major Axis(m)": 6931778.249405717,
        "Time(s)": 720
    },
    {
        "Altitude(m)": 555931.3935726809,
        "Argument of Periapsis(deg)": 0.02544622900432029,
        "Eccentricity": 0.0,
        "Inclination(deg)": 53.0,
        "Latitude(deg)": 35.02968895972202,
        "Longitude(deg)": -71.36626306765322,
        "Mean Anomaly(deg)": 45.7586778596402,
        "RAAN(deg)": -0.037870215655514315,
        "Satellite Name": "Starlink Shell 1 0",
        "Satellite Number": 0,
        "Semi-Major Axis(m)": 6931778.249405717,
        "Time(s)": 730
    },
    {
        "Altitude(m)": 556013.4057978621,
        "Argument of Periapsis(deg)": 0.02579480748383153,
        "Eccentricity": 0.0,
        "Inclination(deg)": 53.0,
        "Latitude(deg)": 35.455895378641905,
        "Longitude(deg)": -70.8440532942567,
        "Mean Anomaly(deg)": 46.38550906319692,
        "RAAN(deg)": -0.038388985732987116,
        "Satellite Name": "Starlink Shell 1 0",
        "Satellite Number": 0,
        "Semi-Major Axis(m)": 6931778.249405717,
        "Time(s)": 740
    },
    {
        "Altitude(m)": 556095.7973751647,
        "Argument of Periapsis(deg)": 0.026143385963342765,
        "Eccentricity": 0.0,
        "Inclination(deg)": 53.0,
        "Latitude(deg)": 35.8794134898728,
        "Longitude(deg)": -70.31589375979048,
        "Mean Anomaly(deg)": 47.01234026675363,
        "RAAN(deg)": -0.03890775581045992,
        "Satellite Name": "Starlink Shell 1 0",
        "Satellite Number": 0,
        "Semi-Major Axis(m)": 6931778.249405717,
        "Time(s)": 750
    }
]